OBJECT_NAME,OBJECT_ID,EPOCH,MEAN_MOTION,ECCENTRICITY,INCLINATION,RA_OF_ASC_NODE,ARG_OF_PERICENTER,MEAN_ANOMALY,EPHEMERIS_TYPE,CLASSIFICATION_TYPE,NORAD_CAT_ID,ELEMENT_SET_NO,REV_AT_EPOCH,BSTAR,MEAN_MOTION_DOT,MEAN_MOTION_DDOT
SKYSAT-C1,2016-040C,2026-06-26T00:13:04.045440,15.36441709,.00026289,96.9565,208.2510,39.9712,320.1726,0,U,41601,999,55922,.29477632E-3,.10408E-3,0
LAPAN-A3,2016-040E,2026-06-26T23:33:13.157856,15.33166389,.00096426,97.1487,173.8053,351.5573,8.5506,0,U,41603,999,55631,.12879946E-3,.4056E-4,0
GAOFEN-3,2016-049A,2026-06-27T00:07:14.663712,14.42216604,.00015956,98.4013,185.6426,98.3948,261.7423,0,U,41727,999,52006,.24474497E-4,.37E-6,0
SKYSAT-C4,2016-058B,2026-06-26T23:01:25.830336,15.48886326,.00021104,96.9173,199.3227,140.0386,220.1021,0,U,41771,999,54698,.3244694E-3,.17417E-3,0
SKYSAT-C5,2016-058C,2026-06-26T16:33:07.862112,15.34598255,.00012105,97.0469,217.9060,220.2430,139.8725,0,U,41772,999,54520,.2249816E-3,.7468E-4,0
SKYSAT-C2,2016-058D,2026-06-26T19:08:38.894496,15.42281363,.00038101,97.0166,199.5314,49.7628,310.3953,0,U,41773,999,54653,.29931382E-3,.12805E-3,0
SKYSAT-C3,2016-058E,2026-06-25T14:03:43.050816,15.52881901,.00012589,96.9009,207.1097,117.9292,242.2090,0,U,41774,999,54741,.43483814E-3,.26959E-3,0
ALSAT-1B,2016-059C,2026-06-26T23:00:51.117408,14.72281778,.00088782,97.7751,186.3010,185.7110,174.3998,0,U,41785,999,52201,.71483519E-4,.405E-5,0
PATHFINDER 1,2016-059E,2026-06-26T22:53:43.264608,14.67673435,.00286189,97.8166,176.7894,172.1832,187.9826,0,U,41787,999,52114,.10988253E-3,.582E-5,0
SCATSAT 1,2016-059H,2026-06-26T17:58:42.215808,14.79545191,.00538367,98.1188,241.6139,216.0597,143.6979,0,U,41790,999,10300,.16007811E-3,.117E-4,0
GOKTURK 1A,2016-073A,2026-06-26T23:01:04.931904,14.62781766,.00014326,98.1246,72.4802,77.9464,282.1899,0,U,41875,999,51025,.12055558E-3,.568E-5,0
RESOURCESAT-2A,2016-074A,2026-06-26T17:06:55.122336,14.21619347,.00032264,98.7527,251.1399,65.3724,294.7789,0,U,41877,999,49565,.87901773E-4,.149E-5,0
CARTOSAT-2D,2017-008A,2026-06-26T23:20:01.379616,15.19277933,.00047336,97.4108,237.0954,194.1076,166.0027,0,U,41948,999,51906,.22752891E-3,.4733E-4,0
SENTINEL-2B,2017-013A,2026-06-26T22:15:59.086080,14.30818851,.00012031,98.5693,252.5650,88.4120,271.7201,0,U,42063,999,48603,-.17653784E-4,-.9E-6,0
CARTOSAT-2E,2017-036C,2026-06-26T23:45:29.500128,15.19236356,.00022037,97.4275,237.6310,271.5104,88.5878,0,U,42767,999,49963,.18278917E-3,.3783E-4,0
FORMOSAT-5,2017-049A,2026-06-26T21:57:05.332320,14.50902035,.00124343,98.2253,253.0083,57.3169,302.9223,0,U,42920,999,46808,.46713765E-4,.141E-5,0
SENTINEL-5P,2017-064A,2026-06-26T20:36:10.775520,14.19520489,.00010191,98.7926,119.9210,90.0917,270.0376,0,U,42969,999,45093,.37999302E-4,.36E-6,0
SKYSAT-C11,2017-068A,2026-06-26T22:44:25.953504,15.58388831,.00004426,97.4353,327.2064,133.1203,227.0090,0,U,42987,999,48476,.39792414E-3,.30201E-3,0
SKYSAT-C10,2017-068B,2026-06-26T22:36:37.665504,15.34795431,.00011716,97.4508,314.8852,105.0167,255.1206,0,U,42988,999,48385,.28689703E-3,.9599E-4,0
SKYSAT-C9,2017-068C,2026-06-26T21:50:33.024480,15.41793765,.00095519,97.4431,315.8812,102.7101,257.5214,0,U,42989,999,48425,.32569062E-3,.13729E-3,0
SKYSAT-C8,2017-068D,2026-06-26T21:33:55.712736,15.37158309,.00013388,97.4528,314.6783,94.5983,265.5414,0,U,42990,999,48380,.29176727E-3,.10534E-3,0
SKYSAT-C7,2017-068E,2026-06-26T22:58:55.279200,15.37112392,.00070249,97.4536,315.7284,77.9411,282.2620,0,U,42991,999,48387,.302746E-3,.10925E-3,0
SKYSAT-C6,2017-068F,2026-06-26T22:19:40.574208,15.34124782,.00051855,97.4573,315.6327,124.2798,235.8936,0,U,42992,999,48381,.30057176E-3,.9852E-4,0
CARTOSAT-2F,2018-004A,2026-06-26T22:57:07.395840,15.19287673,.00016919,97.4793,237.4956,166.7760,193.3519,0,U,43111,999,46881,.21304538E-3,.4427E-4,0
GAOFEN-1 02,2018-031A,2026-06-26T23:45:20.169792,14.76420088,.00029204,98.0528,240.4894,6.7727,353.3521,0,U,43259,999,44414,.86480483E-4,.55E-5,0
GAOFEN-1 03,2018-031B,2026-06-26T19:58:31.298880,14.76437185,.00036191,98.0515,240.1899,59.6399,300.5168,0,U,43260,999,44411,.23125463E-4,.109E-5,0
GAOFEN-1 04,2018-031D,2026-06-26T22:38:51.935424,14.76448108,.0002014,98.0530,240.4926,66.3354,293.8067,0,U,43262,999,44412,.17243837E-3,.1148E-4,0
SENTINEL-3B,2018-039A,2026-06-26T19:08:24.571104,14.26737293,.00007559,98.6246,245.1919,107.5886,252.5377,0,U,43437,999,42549,.58259461E-4,.97E-6,0
GAOFEN-5 01,2018-043A,2026-06-26T22:14:04.996608,14.60612010,.00028919,98.4574,149.7174,66.2307,293.9196,0,U,43461,999,43311,.82686605E-4,.353E-5,0
