SKYSAT-C1               
1 41601U 16040C   26177.00907460  .00010408  00000+0  29478-3 0  9997
2 41601  96.9565 208.2510 0002628  39.9712 320.1726 15.36441709559225
LAPAN-A3                
1 41603U 16040E   26177.98140229  .00004056  00000+0  12880-3 0  9999
2 41603  97.1487 173.8053 0009642 351.5573   8.5506 15.33166389556318
GAOFEN-3                
1 41727U 16049A   26178.00503083  .00000037  00000+0  24474-4 0  9998
2 41727  98.4013 185.6426 0001595  98.3948 261.7423 14.42216604520069
SKYSAT-C4               
1 41771U 16058B   26177.95932674  .00017417  00000+0  32447-3 0  9990
2 41771  96.9173 199.3227 0002110 140.0386 220.1021 15.48886326546987
SKYSAT-C5               
1 41772U 16058C   26177.68967433  .00007468  00000+0  22498-3 0  9992
2 41772  97.0469 217.9060 0001210 220.2430 139.8725 15.34598255545208
SKYSAT-C2               
1 41773U 16058D   26177.79767239  .00012805  00000+0  29931-3 0  9997
2 41773  97.0166 199.5314 0003810  49.7628 310.3953 15.42281363546535
SKYSAT-C3               
1 41774U 16058E   26176.58591494  .00026959  00000+0  43484-3 0  9996
2 41774  96.9009 207.1097 0001258 117.9292 242.2090 15.52881901547411
ALSAT-1B                
1 41785U 16059C   26177.95892497  .00000405  00000+0  71484-4 0  9998
2 41785  97.7751 186.3010 0008878 185.7110 174.3998 14.72281778522014
PATHFINDER 1            
1 41787U 16059E   26177.95397297  .00000582  00000+0  10988-3 0  9995
2 41787  97.8166 176.7894 0028618 172.1832 187.9826 14.67673435521147
SCATSAT 1               
1 41790U 16059H   26177.74909972  .00001170  00000+0  16008-3 0  9998
2 41790  98.1188 241.6139 0053836 216.0597 143.6979 14.79545191103008
GOKTURK 1A              
1 41875U 16073A   26177.95908486  .00000568  00000+0  12056-3 0  9999
2 41875  98.1246  72.4802 0001432  77.9464 282.1899 14.62781766510257
RESOURCESAT-2A          
1 41877U 16074A   26177.71313799  .00000149  00000+0  87902-4 0  9991
2 41877  98.7527 251.1399 0003226  65.3724 294.7789 14.21619347495650
CARTOSAT-2D             
1 41948U 17008A   26177.97223819  .00004733  00000+0  22753-3 0  9994
2 41948  97.4108 237.0954 0004733 194.1076 166.0027 15.19277933519062
SENTINEL-2B             
1 42063U 17013A   26177.92776720 -.00000090  00000+0 -17654-4 0  9997
2 42063  98.5693 252.5650 0001203  88.4120 271.7201 14.30818851486031
CARTOSAT-2E             
1 42767U 17036C   26177.98992477  .00003783  00000+0  18279-3 0  9991
2 42767  97.4275 237.6310 0002203 271.5104  88.5878 15.19236356499637
FORMOSAT-5              
1 42920U 17049A   26177.91464505  .00000141  00000+0  46714-4 0  9996
2 42920  98.2253 253.0083 0012434  57.3169 302.9223 14.50902035468080
SENTINEL-5P             
1 42969U 17064A   26177.85845805  .00000036  00000+0  37999-4 0  9993
2 42969  98.7926 119.9210 0001019  90.0917 270.0376 14.19520489450932
SKYSAT-C11              
1 42987U 17068A   26177.94752261  .00030201  00000+0  39792-3 0  9999
2 42987  97.4353 327.2064 0000442 133.1203 227.0090 15.58388831484769
SKYSAT-C10              
1 42988U 17068B   26177.94210261  .00009599  00000+0  28690-3 0  9990
2 42988  97.4508 314.8852 0001171 105.0167 255.1206 15.34795431483858
SKYSAT-C9               
1 42989U 17068C   26177.91010445  .00013729  00000+0  32569-3 0  9990
2 42989  97.4431 315.8812 0009551 102.7101 257.5214 15.41793765484259
SKYSAT-C8               
1 42990U 17068D   26177.89856149  .00010534  00000+0  29177-3 0  9990
2 42990  97.4528 314.6783 0001338  94.5983 265.5414 15.37158309483808
SKYSAT-C7               
1 42991U 17068E   26177.95758425  .00010925  00000+0  30275-3 0  9991
2 42991  97.4536 315.7284 0007024  77.9411 282.2620 15.37112392483879
SKYSAT-C6               
1 42992U 17068F   26177.93033072  .00009852  00000+0  30057-3 0  9999
2 42992  97.4573 315.6327 0005185 124.2798 235.8936 15.34124782483819
CARTOSAT-2F             
1 43111U 18004A   26177.95633560  .00004427  00000+0  21305-3 0  9993
2 43111  97.4793 237.4956 0001691 166.7760 193.3519 15.19287673468814
GAOFEN-1 02             
1 43259U 18031A   26177.98981678  .00000550  00000+0  86480-4 0  9994
2 43259  98.0528 240.4894 0002920   6.7727 353.3521 14.76420088444149
GAOFEN-1 03             
1 43260U 18031B   26177.83230670  .00000109  00000+0  23125-4 0  9996
2 43260  98.0515 240.1899 0003619  59.6399 300.5168 14.76437185444111
GAOFEN-1 04             
1 43262U 18031D   26177.94365666  .00001148  00000+0  17244-3 0  9992
2 43262  98.0530 240.4926 0002014  66.3354 293.8067 14.76448108444128
SENTINEL-3B             
1 43437U 18039A   26177.79750661  .00000097  00000+0  58259-4 0  9994
2 43437  98.6246 245.1919 0000755 107.5886 252.5377 14.26737293425490
GAOFEN-5 01             
1 43461U 18043A   26177.92644672  .00000353  00000+0  82687-4 0  9992
2 43461  98.4574 149.7174 0002891  66.2307 293.9196 14.60612010433116
